{"type": "FeatureCollection", "features": [{"type": "Feature", "properties": {}, "geometry": {"type": "MultiPolygon", "coordinates": [[[[12.510411063215042, 50.438075282140304], [12.516169721168271, 50.43731557639951], [12.524282784553927, 50.43041697824717], [12.529619774608287, 50.42879257338419], [12.534745830444603, 50.422844798733884], [12.541119561467132, 50.42339512659252], [12.543909929001204, 50.42252806153462], [12.551957543918132, 50.4157567530731], [12.567965766743814, 50.416088646319444], [12.564427838458963, 50.411752698151396], [12.567763563806109, 50.40966988801028], [12.581593009134194, 50.40925638594501], [12.583104435922632, 50.40475300448701], [12.58750708020356, 50.406871303681626], [12.594368502860553, 50.407832284133804], [12.602078935330109, 50.40579348378608], [12.607418014668355, 50.40834147176616], [12.609979192915212, 50.41180333475252], [12.626031070341886, 50.41647812208854], [12.644199630769636, 50.4106881499002], [12.65790725172143, 50.41124959291799], [12.661268173654976, 50.4124833802143], [12.663846831244555, 50.41577818482082], [12.659971212257982, 50.41984321696911], [12.668146531315069, 50.42171892974207], [12.668641350549692, 50.420788114118885], [12.67858374541507, 50.42439678181687], [12.677811737154913, 50.43229247375066], [12.683245384367016, 50.43393219449474], [12.686688360143192, 50.43274084738292], [12.698749592595744, 50.44033619915351], [12.701443840844275, 50.439758101597285], [12.708306248981664, 50.433158359383214], [12.713051596181007, 50.43095828772983], [12.719387646920508, 50.43020455156984], [12.72999796837545, 50.43441513856917], [12.73300243856116, 50.43044559445946], [12.734446591867215, 50.432384761346206], [12.74462477916183, 50.4354627923749], [12.752307391856395, 50.435303829607264], [12.754650666021773, 50.4408587739371], [12.760956071352986, 50.44867933201673], [12.767996457738999, 50.44785094414734], [12.773651680068692, 50.449723811123036], [12.787174278872175, 50.44796547859479], [12.79359674640298, 50.445420131892504], [12.799526914424131, 50.45035341660205], [12.800932261559629, 50.45602529420348], [12.806760551793502, 50.45991545036278], [12.815417242910952, 50.462759379674246], [12.827348212885157, 50.46078901786782], [12.827536031208135, 50.457113805250465], [12.839885938963116, 50.453149641097106], [12.84732932800845, 50.44863626025343], [12.847531004066685, 50.44706693588293], [12.855205473549615, 50.4452595569031], [12.85903313242984, 50.44555494908934], [12.865086007321908, 50.44092213183618], [12.866886570627807, 50.437716689631564], [12.871289036732476, 50.43813482923958], [12.87877070804339, 50.436291659556595], [12.893071401859451, 50.430793128907396], [12.903923258420113, 50.422404036523055], [12.911796333059758, 50.424705901483875], [12.91268332718305, 50.42401534888135], [12.91801433546542, 50.42840064730336], [12.937579068830836, 50.42388425160622], [12.943506491731712, 50.42084706764123], [12.94623305442172, 50.42091222144058], [12.950912431518814, 50.423870314819915], [12.955138853952489, 50.43004330749465], [12.966349300760822, 50.43525476618008], [12.971515827588062, 50.44182388951123], [12.980785478261838, 50.44077960337675], [12.98675493647168, 50.441821331883155], [12.994023714746398, 50.44405632471742], [13.000524683406608, 50.448239367441296], [13.004640904779327, 50.44814092977783], [13.006164208152128, 50.446941051565794], [13.005704245211383, 50.44383893740284], [13.012579604519784, 50.44360969850028], [13.014813440364515, 50.44142288733955], [13.02100598808395, 50.4391258029037], [13.021423577036407, 50.43760382856587], [13.030409532905434, 50.43922419256736], [13.034016319978367, 50.442713892940915], [13.045823217919724, 50.43722447973175], [13.049325523683756, 50.43328132846698], [13.047437273776378, 50.430596675119936], [13.04279562697149, 50.429637204309444], [13.040289406918266, 50.430457391531256], [13.040045422923269, 50.42840487552935], [13.033540950699722, 50.42352081815579], [13.037384208531813, 50.408208977551396], [13.040680395119605, 50.40701645980395], [13.043638534612318, 50.407559728130536], [13.04626548556473, 50.40603476137535], [13.045785376347837, 50.40123145072489], [13.048670114842452, 50.399076219260564], [13.069549679424517, 50.3957741197906], [13.073665307416038, 50.39242263720804], [13.07991589925492, 50.390572219333606], [13.084830891983081, 50.381855259179055], [13.10044267982894, 50.381790067954135], [13.106909329073462, 50.376881357303816], [13.105029246075583, 50.375313402326746], [13.109034658396435, 50.37453141254165], [13.113631177442471, 50.3686771838687], [13.122089767821688, 50.36981893821226], [13.124109004616077, 50.370847446441736], [13.122076641288697, 50.3734220057236], [13.126082052431169, 50.373667488138736], [13.124066168634007, 50.37920838853369], [13.121579552461382, 50.37997736543866], [13.121882855030792, 50.38228587372473], [13.117955905859388, 50.38521136446881], [13.119897054904989, 50.39400741863119], [13.124121180136083, 50.39526313162325], [13.128272855195274, 50.39429959131645], [13.13536557258054, 50.3867661400856], [13.14065883076062, 50.38865265457592], [13.145231908636548, 50.38862192586035], [13.14626699640887, 50.38422398572041], [13.148897292652531, 50.381671952975836], [13.145908980395793, 50.37776648885249], [13.147829348732666, 50.37708105654307], [13.148629495738456, 50.374116722932726], [13.137856057533622, 50.36748125744305], [13.140698619571134, 50.36329314773461], [13.141976175890855, 50.363818823660914], [13.148318710177625, 50.360785115966415], [13.14937882832349, 50.35571881831619], [13.152129013531296, 50.36239020093602], [13.150470375847682, 50.366880328961905], [13.156248311984461, 50.36697237925807], [13.1560797273633, 50.36537050748518], [13.164039166832055, 50.36186494879609], [13.167297940531377, 50.35877746006099], [13.176274272547174, 50.36401604202351], [13.180088309830456, 50.364387549123094], [13.190282294886925, 50.37083871855807], [13.20181297681829, 50.36956834033066], [13.20381896943599, 50.371624509389314], [13.202314112983094, 50.3756907803262], [13.20543040429237, 50.37418143771923], [13.21307795429206, 50.37436346347785], [13.214375558880034, 50.37290557669887], [13.213208734800258, 50.36810912855079], [13.208033489806834, 50.362967765528005], [13.208959513841478, 50.36080218500536], [13.207562384642653, 50.35799396971545], [13.201780566701101, 50.354775317662885], [13.20349598977082, 50.352491097313326], [13.217894230080729, 50.35625850966273], [13.21810236607618, 50.36569977129314], [13.220753542086365, 50.37121139741604], [13.232890521953014, 50.37714764201738], [13.233448132369478, 50.37319540447786], [13.238713005205973, 50.37024259192385], [13.236449244314919, 50.36536551172186], [13.238376462499732, 50.35883378155946], [13.243331290464445, 50.36065071647257], [13.250135630253075, 50.359225525931876], [13.257458352376037, 50.361256711878454], [13.260511848885688, 50.35878390830326], [13.277780777697002, 50.35798932564404], [13.279180595305254, 50.35573959515836], [13.282147999298036, 50.35679486247674], [13.287332098731088, 50.35579570068126], [13.295506865055076, 50.35644888600654], [13.301113243563165, 50.35913674064552], [13.309153299429905, 50.35865558398759], [13.313755028871713, 50.359521849660574], [13.317426668297383, 50.361545746624884], [13.317159294250667, 50.36475857244386], [13.326359318708167, 50.36522193195335], [13.330173714633148, 50.367250765598286], [13.33116654910047, 50.362576658686315], [13.326356207634408, 50.36041901770431], [13.324116178782218, 50.35621034164445], [13.32875873759283, 50.352809907838484], [13.32496029294768, 50.35082767123783], [13.324957327678899, 50.3490095182635], [13.322674799375168, 50.347705542400156], [13.317554831059809, 50.34673470370599], [13.317033642784029, 50.3444354817335], [13.322102836266987, 50.34188866955903], [13.324191931617618, 50.34317767773294], [13.325546222371647, 50.34083174015907], [13.338231312486812, 50.33823660513982], [13.33868985996948, 50.33660352820313], [13.342104446604544, 50.335283928435736], [13.333339238936292, 50.33012785165701], [13.336251060342931, 50.328399041941346], [13.337304208141488, 50.32463985483875], [13.33746629377932, 50.32276456508855], [13.335200049645923, 50.32219907101456], [13.345376383350434, 50.321368673433504], [13.347104417940821, 50.317697937290944], [13.34005019655976, 50.31357288270693], [13.325442176602241, 50.30952483675095], [13.322426402490212, 50.30905537745837], [13.32042131983839, 50.310171076250285], [13.309419957543819, 50.30634202368193], [13.307205340818754, 50.30424893236874], [13.300744936103204, 50.30400949908584], [13.297690692910354, 50.302760652867065], [13.294652370508583, 50.30397976182189], [13.28927778729293, 50.30340817225428], [13.283073455141844, 50.300706100071764], [13.280688645535784, 50.301505358733536], [13.279777962452949, 50.299983901146625], [13.27220023458226, 50.30014046057435], [13.271214711341113, 50.29883459147781], [13.262970840823419, 50.297406526548905], [13.261578454264644, 50.29544858443536], [13.255626461934897, 50.29495722360923], [13.253350144563433, 50.291442014520136], [13.249422039416459, 50.291225277518635], [13.255363966553995, 50.28994626421261], [13.257440761630912, 50.290953123250254], [13.262224503494132, 50.288932941112975], [13.266447991828688, 50.28862239450867], [13.267580910796699, 50.287292343257874], [13.26379412210625, 50.28775224066458], [13.252192718124201, 50.28566242757503], [13.260308585932732, 50.284532651293894], [13.261404164842391, 50.283413899065316], [13.263436479702182, 50.28400590966282], [13.266558839773012, 50.27933583226052], [13.264945802097943, 50.27804334564164], [13.277616176396773, 50.27486684296224], [13.281401962082855, 50.275536870905064], [13.283085522362537, 50.27869828306245], [13.293846710728513, 50.27934938170724], [13.302639120250097, 50.2772030859312], [13.305858494604509, 50.27302599413799], [13.311883101735004, 50.27119082384113], [13.311878068830438, 50.270180058741474], [13.315974964657077, 50.27013646854373], [13.323194682685472, 50.27516220312122], [13.348715915267151, 50.27260769613576], [13.352331045453909, 50.27286604833214], [13.352270743315474, 50.274397750126234], [13.35412652906877, 50.27463822540479], [13.362296532007004, 50.27418488944111], [13.365318957115147, 50.275274532167224], [13.367554957103254, 50.27840676855341], [13.37274050723064, 50.27825817803087], [13.386230111439584, 50.27732542262217], [13.388411794538278, 50.27298173551075], [13.39073253646087, 50.27320189621435], [13.394944118065908, 50.27008556790691], [13.398293926348723, 50.27017462230172], [13.39766072948159, 50.26780043180278], [13.39110588853212, 50.268073965162245], [13.38352611588187, 50.263416323430704], [13.371263144998244, 50.26245977263708], [13.369544315225582, 50.25974179158261], [13.362935042899583, 50.25848992743012], [13.3625435943902, 50.25745635893322], [13.361761464894293, 50.25807358868335], [13.355136350027616, 50.25438418656382], [13.337637363118088, 50.25699562053611], [13.324072939726324, 50.26125329893907], [13.3186914887338, 50.258683948507056], [13.306500150184025, 50.259753901659344], [13.29944495413455, 50.26273027846028], [13.298888803290547, 50.26469020183073], [13.29592820365848, 50.26224088101823], [13.291911649576843, 50.262234262809464], [13.290483164166071, 50.26324789917474], [13.284303740938414, 50.26185564525431], [13.275314721914077, 50.261923280207014], [13.27165227780077, 50.25969532384211], [13.269195300264789, 50.25561233536828], [13.272214696336185, 50.25543675700919], [13.275396633101812, 50.25335651184211], [13.27518514844177, 50.25047622739093], [13.284038522226298, 50.24867732193877], [13.28716206882264, 50.245403628999355], [13.293231019153241, 50.24463860247034], [13.299682065268867, 50.24501876271772], [13.303637045110586, 50.24682332445743], [13.3153440450849, 50.24582043515351], [13.321061008990023, 50.24809019174932], [13.330343279795928, 50.24892835988595], [13.33157339914256, 50.25026203897134], [13.342047851763484, 50.24916973784733], [13.362662363271719, 50.25063528029921], [13.369243238861484, 50.25518748463828], [13.377640286960219, 50.25756341171346], [13.382074488752501, 50.2573920216331], [13.381503793875638, 50.25506381916744], [13.37800766504824, 50.253194560147], [13.38271342626901, 50.24674439801771], [13.380400822511668, 50.23745494310156], [13.376952976523011, 50.23737113204917], [13.375730471148538, 50.235785788725366], [13.373940649642572, 50.23681022527499], [13.363158575950145, 50.23571881515346], [13.357429789130242, 50.23744896021931], [13.351836570944878, 50.234052360973834], [13.3455907339941, 50.23399214425231], [13.340977225618303, 50.23158466633866], [13.327685423778544, 50.23091814350668], [13.322172412758707, 50.22904240307177], [13.31261022150005, 50.23138791574025], [13.312066937614285, 50.229542838724754], [13.308444132752028, 50.22959961553954], [13.311819728216113, 50.22845407044358], [13.312783365810517, 50.225536187401595], [13.308861002739025, 50.22316363243055], [13.31066382533318, 50.21707145669307], [13.303382272759432, 50.21250086683959], [13.29244515353635, 50.21065095907687], [13.29072770919254, 50.20775805880522], [13.293434391426851, 50.205270523010505], [13.291862601231745, 50.20152067220303], [13.294065608020759, 50.19983262268574], [13.30140674415432, 50.20035413320161], [13.304233709475486, 50.198210795690194], [13.307415369939907, 50.19808586021455], [13.309665448578304, 50.20113857395402], [13.30944101968301, 50.20271617834218], [13.306201639245497, 50.203049057525526], [13.305868484282119, 50.20602810469553], [13.30736037342225, 50.20729244493827], [13.31876327447305, 50.208017296015434], [13.323089595895311, 50.21159324048461], [13.326086641319508, 50.21130958299604], [13.327196330269128, 50.21235153648913], [13.33736417749957, 50.20521987657254], [13.342109735398163, 50.20438101113026], [13.346698741731576, 50.20592188009757], [13.35091271218594, 50.20425882585817], [13.356099921503333, 50.20393731089478], [13.361974911767, 50.20126064517659], [13.360389226721926, 50.1983293146508], [13.368269917637884, 50.197077331021816], [13.372252897872677, 50.198655621174744], [13.374909543549826, 50.197610024285986], [13.37680076019814, 50.19545611463036], [13.370137393768077, 50.192952575381284], [13.385224793057512, 50.18921526758599], [13.388826183397128, 50.18936999209948], [13.400936244992115, 50.181036806955824], [13.400528846672364, 50.18014116180877], [13.394596262806008, 50.179899862204756], [13.389846070112233, 50.175686153646765], [13.400375985518426, 50.17229056070372], [13.397700801708163, 50.16877387553696], [13.40481059207287, 50.16867984929799], [13.412786981874307, 50.1668221387596], [13.407749731848739, 50.16459574541449], [13.399364620480377, 50.164468289089555], [13.40011671479629, 50.16367295497015], [13.398028262961553, 50.16338162636058], [13.39042801685859, 50.16355020722232], [13.386363846491559, 50.16487407850614], [13.381540900283575, 50.16419535827415], [13.382096012874895, 50.166078362315744], [13.36906932146004, 50.16989656047325], [13.345099368126249, 50.170678335925686], [13.338427194297473, 50.17353400211911], [13.337514977370802, 50.176329097097856], [13.332088652464275, 50.17710801592658], [13.32638090849988, 50.18052657168125], [13.324538189885528, 50.180844097018685], [13.322505177039291, 50.1786001409476], [13.324838234476632, 50.1732435909026], [13.318800281072118, 50.16991506016715], [13.323083822882476, 50.170329203110235], [13.326938482380386, 50.16833798828622], [13.328225462346447, 50.161083871097], [13.32594127223212, 50.15758379105152], [13.322489736098095, 50.15576102990136], [13.317959682942227, 50.155864463974225], [13.317101908521282, 50.15413143959422], [13.325677623858198, 50.1550574039626], [13.34349809148494, 50.15161954796089], [13.35037667442124, 50.15170795326665], [13.355304053037331, 50.15340505043582], [13.355980406165957, 50.14641861225673], [13.357946635167586, 50.1455611512206], [13.348458522677557, 50.1453528096969], [13.345079673763625, 50.1434576590015], [13.34547736124748, 50.14216633870248], [13.360391146550358, 50.140353005584295], [13.364776600348694, 50.13705933866235], [13.36084165896657, 50.13573066113301], [13.359242793928473, 50.13354722060141], [13.352313582911508, 50.13274467054128], [13.349183737742887, 50.13041797919487], [13.350584878817763, 50.12886008435617], [13.34770438877977, 50.12628939453253], [13.338873045710331, 50.12657507820487], [13.335186348629271, 50.1195232539859], [13.329407132515039, 50.11711991678774], [13.326722262667403, 50.111962270073114], [13.328132116395015, 50.11009619363926], [13.33281260687872, 50.109541573931836], [13.334971403056347, 50.107687745858584], [13.344120708354323, 50.10709515362386], [13.34647048942366, 50.10483688884135], [13.34577446573086, 50.10248523551937], [13.34848051600249, 50.102338142595954], [13.3494728085463, 50.09844222164323], [13.352127912942553, 50.09826338130061], [13.351413147764587, 50.09709902207714], [13.354697223497606, 50.0961603751395], [13.350874034418483, 50.09448308670695], [13.344575481434495, 50.08885797130703], [13.345198644514834, 50.08794824651278], [13.341670737471533, 50.08706733909694], [13.348849759252893, 50.08040385757436], [13.346546532589404, 50.077907952621956], [13.336950580357035, 50.077283891336464], [13.343559831904958, 50.07400528810916], [13.341826412016987, 50.07376635199125], [13.34161224017074, 50.072042676268644], [13.344926975333308, 50.07113568506091], [13.345848036838705, 50.06908312720831], [13.34044476399278, 50.06490154551222], [13.340018426811145, 50.061006996341426], [13.337765634360917, 50.058787162757994], [13.33884463485602, 50.0580739546278], [13.336193331273204, 50.05521348886937], [13.332408700336078, 50.055299004687186], [13.328782724500517, 50.0525367795186], [13.329065200892662, 50.051108186134435], [13.331774054786573, 50.05101150970377], [13.334774717753087, 50.048677151725045], [13.33256662978486, 50.04616565309403], [13.33223623281391, 50.04225882679166], [13.328497196289103, 50.03958396418772], [13.332974236224764, 50.0389867753761], [13.33618974885341, 50.035436987812446], [13.33441949612349, 50.03346215540856], [13.335774418313331, 50.03095224973342], [13.326248312468756, 50.0260459288993], [13.330957289333558, 50.02255827422749], [13.328153129367726, 50.02012615337934], [13.328835249150423, 50.018777086190546], [13.324691397957462, 50.01855549293604], [13.324413179229744, 50.0169974329438], [13.329992497483158, 50.01554763583726], [13.327987374980209, 50.014652394353234], [13.330270593291912, 50.0127155986328], [13.326140028245883, 50.01130595700491], [13.32639452010916, 50.00982697972299], [13.328687273049608, 50.0092031944975], [13.326008398949286, 50.007798819752765], [13.329881873197433, 50.003288679818894], [13.314016830525935, 49.99854438754798], [13.309889426916762, 49.995226390489776], [13.305050682869219, 49.997044731066744], [13.294085585251695, 49.994554120317034], [13.291422118228212, 49.997765996738075], [13.28941272958138, 49.99646153659182], [13.28956942685354, 49.994629922545194], [13.297940070723802, 49.991659222052654], [13.29545721149703, 49.98524709947062], [13.291831633677598, 49.984546439236375], [13.288026765028846, 49.98110140615624], [13.284430297511852, 49.9814292215866], [13.270561065673922, 49.97496400353461], [13.265823446366184, 49.97870354387193], [13.266318712227985, 49.98168103399009], [13.26076043134674, 49.98344213115873], [13.245286061327532, 49.98105250952393], [13.241963881642958, 49.98151381038472], [13.236898666036783, 49.97739157010668], [13.227577464483135, 49.97606431754662], [13.220201184781368, 49.97284560411905], [13.214361856090564, 49.9666085869067], [13.204669375426647, 49.96293670243619], [13.202254598031507, 49.958829668351086], [13.19617793759218, 49.95608885860808], [13.19476385184977, 49.95710925109938], [13.189315528578463, 49.95435167996281], [13.185559855519337, 49.95027658935305], [13.178792066875692, 49.954734265656825], [13.181818037086273, 49.96312331143518], [13.181149237908944, 49.96549986537075], [13.174501128322994, 49.96966666687488], [13.170077458177719, 49.96750263811108], [13.161394248677988, 49.969513863199126], [13.159079155037938, 49.967981516721984], [13.145947508236699, 49.96680775060059], [13.139051052995145, 49.96939949805351], [13.136077443516271, 49.967287886051174], [13.130329629945631, 49.96723153915001], [13.128039274841083, 49.9685958841645], [13.123006135544026, 49.96883058548528], [13.115005422535761, 49.967804066986304], [13.100389090262107, 49.97070516089503], [13.098608348154984, 49.97454286959137], [13.093653823625814, 49.978117089216866], [13.103967607471668, 49.98172400051339], [13.112103502408333, 49.97925898923081], [13.125431518359578, 49.9830323753456], [13.132556236108714, 49.98299099711929], [13.142849329061166, 49.98837777415178], [13.14814649320218, 49.989719057035266], [13.149518419810459, 49.988886568343666], [13.15400426168533, 49.990695374472615], [13.15927520195295, 49.99583166245455], [13.156652786681915, 50.00431400056018], [13.150668182718494, 50.001266050737534], [13.14710773032139, 50.00080231317573], [13.145908606167838, 49.996749226189785], [13.140737483112419, 49.99499338510002], [13.131472142177262, 49.99572744178015], [13.1191023837271, 49.99417097100701], [13.10909874544682, 49.99696892567042], [13.09736103112071, 49.996712725742356], [13.095535575435688, 49.99530013616901], [13.08079649122815, 49.99575441585479], [13.072626035306012, 49.994562253397746], [13.06912183141565, 49.995501157568285], [13.066812554608122, 49.99190966437345], [13.065129135315678, 49.99188159427086], [13.066649455286417, 49.989527155732326], [13.061282426749356, 49.987095408444645], [13.06862048981853, 49.98691320568417], [13.07020384354114, 49.985073642666286], [13.075282552715759, 49.98358323038043], [13.07442515351648, 49.98015971712125], [13.078225084740758, 49.977351840952196], [13.076819338249905, 49.97588286073608], [13.077084676193012, 49.970522914992074], [13.07162638999447, 49.96704578118304], [13.07311508494753, 49.96472608945437], [13.076408884689855, 49.964742769550895], [13.07935622432051, 49.955209081671626], [13.072589877354556, 49.953366305454324], [13.077345790291746, 49.94996847756146], [13.07722741692853, 49.94612164951727], [13.08219753933756, 49.94411444746719], [13.076404151747177, 49.931683053423924], [13.071533154271558, 49.93132606447339], [13.069714392775742, 49.92858504712606], [13.059288856076892, 49.92306327008514], [13.059990092981705, 49.921573259989934], [13.053320633384475, 49.91565201077779], [13.049262206440295, 49.91356792339203], [13.038292297074086, 49.91240765448833], [13.038780266618177, 49.90920240131807], [13.035340249100768, 49.90706644968871], [13.031666364739452, 49.90135886535393], [13.028132207210017, 49.90101082527103], [13.025282107686925, 49.89834910962991], [13.017097951701995, 49.897799380693854], [13.016853852240645, 49.900501793855845], [13.020358970643551, 49.9041091833716], [13.01721960049818, 49.90448268366887], [13.01710684017512, 49.90804117855082], [13.01375981467146, 49.909497533886515], [13.01701449866166, 49.91523421718941], [13.013216604590818, 49.92065261539972], [13.009262051896657, 49.923687637139864], [13.007465479340839, 49.921116916525136], [13.001473925804326, 49.920585773073626], [12.999497589009506, 49.91792065986002], [12.99357735907867, 49.91992352334185], [12.99278831128201, 49.922328455262324], [12.989758508879708, 49.921053175259395], [12.98700872350599, 49.921352990603445], [12.984418312288208, 49.91707583338645], [12.974656535245051, 49.91567703079191], [12.976209858734393, 49.91416968454396], [12.974299934163454, 49.90917408862545], [12.969463025418937, 49.90754962192065], [12.9678823963245, 49.90079596748315], [12.96174416106105, 49.8998626404091], [12.956958263215293, 49.90235545756484], [12.953574441236077, 49.900685562932445], [12.934816460225893, 49.89800636659059], [12.92948818277293, 49.89353199231319], [12.930595580985367, 49.892427473832086], [12.922278662103174, 49.889263429457564], [12.917532365878802, 49.88929963026738], [12.91533509866201, 49.88643269894362], [12.915075683661426, 49.88035828328003], [12.906440408796652, 49.878147062840185], [12.90497823068391, 49.878318180546906], [12.903907328995404, 49.8792341573518], [12.903637157586852, 49.87917929098485], [12.903212124434429, 49.87394273985743], [12.89627151397549, 49.872132869328354], [12.895087399320571, 49.870331930503646], [12.890826815032305, 49.87082867286265], [12.885436336560222, 49.86946665871842], [12.881624633795516, 49.871219979279275], [12.876316533414302, 49.87136812559533], [12.876978084827597, 49.873412774926244], [12.874632275471628, 49.874838244164685], [12.87349798295154, 49.87869447103032], [12.870631756806619, 49.879634309051994], [12.864952903920955, 49.879206150778984], [12.864230740286581, 49.881382453776325], [12.855038462922842, 49.88260499984269], [12.85022790241186, 49.8870021913893], [12.845272666883458, 49.88379235739667], [12.840554830351454, 49.883530808909484], [12.8384287424506, 49.88218059736698], [12.842473835604556, 49.87964904261994], [12.839669668006932, 49.87382050359895], [12.841399753513516, 49.865496493119906], [12.840121801791117, 49.86335684186653], [12.836848931501745, 49.862855490503534], [12.841352558936967, 49.85871065217503], [12.84030897233571, 49.85445428235213], [12.83616069218909, 49.85106627559662], [12.838427891442251, 49.84999949882537], [12.836198317025897, 49.848621833558944], [12.836061766535884, 49.846721352758536], [12.838569122654437, 49.84215736813194], [12.838028536145519, 49.840072657251866], [12.835641884675518, 49.83891919606052], [12.82684963094604, 49.842740419559284], [12.821280873152263, 49.84332367101822], [12.818423756642012, 49.84678284289622], [12.809242047677575, 49.85017014275567], [12.806465373225972, 49.85223108324298], [12.808646930643556, 49.85413116594479], [12.806707898470163, 49.85532971869293], [12.80697624491165, 49.85732644747441], [12.803131886862406, 49.85747302896633], [12.800194614191547, 49.85940701462226], [12.802185787201157, 49.86438069903125], [12.789326846856927, 49.86536924777865], [12.783609992649602, 49.872176429736584], [12.781087122269856, 49.87322772688963], [12.770372392042523, 49.87128583745948], [12.767509145374284, 49.86332779055158], [12.763987058875516, 49.86026578707444], [12.757888089005878, 49.85935776315768], [12.751914521527409, 49.85686567910339], [12.751843111703982, 49.85284373692579], [12.746669912490017, 49.85176914211884], [12.743426257230086, 49.84957111113291], [12.741840892094004, 49.85302224214159], [12.739334675815352, 49.85419195946656], [12.739300619015347, 49.86045707806306], [12.733764050189524, 49.85940494083539], [12.73449817430289, 49.86346538369529], [12.730804970900346, 49.86530693648073], [12.727742596649934, 49.869136941868526], [12.726072611713947, 49.869060076374716], [12.729175266665422, 49.86626723797674], [12.728446337927403, 49.864736485794324], [12.71866043396537, 49.86254098784753], [12.716297979136819, 49.86042132782035], [12.711975838899155, 49.85964794284694], [12.707870283518252, 49.85717008185345], [12.702746787902626, 49.85854425672288], [12.69940014927319, 49.86133631228182], [12.696715456391154, 49.85980258062663], [12.691813501538384, 49.86022389222982], [12.686602570953402, 49.858941840952696], [12.683171717590152, 49.860934430685376], [12.677604870199646, 49.86186620394401], [12.649564375482568, 49.86268526740742], [12.642843203212703, 49.86514063860906], [12.632729840119516, 49.865791295753795], [12.628388819239555, 49.86819209208608], [12.62768197818975, 49.870546247686285], [12.620681944115882, 49.868597901549535], [12.61451384624367, 49.868864076747215], [12.611270483834184, 49.86713120300877], [12.61121872064092, 49.872205068493756], [12.614821412546124, 49.875027679352385], [12.617872816362175, 49.87558550375117], [12.620715667726143, 49.88091102042031], [12.624708884122645, 49.88444504424334], [12.617922628748975, 49.88497355528903], [12.61478533887004, 49.88831253472456], [12.610549921577407, 49.889037035577296], [12.603425529568797, 49.892897831558045], [12.598580553317952, 49.890728049231996], [12.593163385379938, 49.890129986819424], [12.587379269383309, 49.894301399092576], [12.571052934072814, 49.89806363833202], [12.56675260784307, 49.897388296518876], [12.561579646404375, 49.893783804009146], [12.552172059986553, 49.899273899053604], [12.5449500389026, 49.90074525658635], [12.544184254764668, 49.89784069168577], [12.5366664417454, 49.89307167632612], [12.520043501264645, 49.89104646205488], [12.512392015532393, 49.89618218087513], [12.505713545831403, 49.89839521811635], [12.499565951797413, 49.903081270673425], [12.49813621611504, 49.8992243580751], [12.499015688108843, 49.89083747774135], [12.496375881161507, 49.88774936214575], [12.496865014524731, 49.882089185972994], [12.489595607958764, 49.87872425991676], [12.487409159413076, 49.86859781111623], [12.4840784792122, 49.86358358841176], [12.481706911766999, 49.86248123894454], [12.478420163135562, 49.862863588836085], [12.471983669939252, 49.85718421672418], [12.465134108985502, 49.85945330223877], [12.460463589073468, 49.85936091276766], [12.454677078889233, 49.855183746388825], [12.454214846474645, 49.85059434395537], [12.447466642847356, 49.85212894229492], [12.443728906254417, 49.8516290088703], [12.432434473495821, 49.85579617505661], [12.423841067830415, 49.85661419804152], [12.411653510377837, 49.862372606609995], [12.410158673151853, 49.86648743392205], [12.411097246189598, 49.87068278448827], [12.408002675241386, 49.872533692289586], [12.405248036814553, 49.88204306854641], [12.40185719045298, 49.88458381580048], [12.403214387051275, 49.890877094873694], [12.397249162323423, 49.89170826764634], [12.385386046024122, 49.88930860297569], [12.379649270919332, 49.89048664807541], [12.372429739358626, 49.89466012517029], [12.362830841962419, 49.89630360539729], [12.354830386477825, 49.89698495108951], [12.34905949750025, 49.894858721786406], [12.34713659983022, 49.89770951682906], [12.338106164616645, 49.90208596014091], [12.335441427353365, 49.908238400971236], [12.329607051320904, 49.90931693522248], [12.327837160709942, 49.91140032835348], [12.321974481364697, 49.913562924238285], [12.313365767001306, 49.91316862223584], [12.29768402760686, 49.9174006379976], [12.294107963808175, 49.92192796146488], [12.28090409251881, 49.92578992235895], [12.275224366315578, 49.93002241534114], [12.26043593396774, 49.9353023117254], [12.257431141131404, 49.93961250930487], [12.250730811828346, 49.9435778665867], [12.243092163991887, 49.945629408311866], [12.237956216963754, 49.94461487735488], [12.235929453987454, 49.93926514387478], [12.227160999486868, 49.93628300257346], [12.219647090173217, 49.935679266515514], [12.215986057331527, 49.93163399724871], [12.190491022948498, 49.93223579719572], [12.182691128484917, 49.93044800254877], [12.180032433899504, 49.927950336387774], [12.168502181457509, 49.93032593531347], [12.151987256829324, 49.94080708893642], [12.146648951268537, 49.946531196133684], [12.136471275010352, 49.94655090752079], [12.133285655553575, 49.94345748126675], [12.12239360578342, 49.94248556547233], [12.115239605985549, 49.93810484356312], [12.110896060834358, 49.932917947693674], [12.10149772069938, 49.92616219446871], [12.100242930232236, 49.92331547459768], [12.09688994678494, 49.9252839427478], [12.084252169633803, 49.92700446986265], [12.081584979401173, 49.92497008887564], [12.079943035780763, 49.91602194699081], [12.077281557066756, 49.91428287631503], [12.05979849270397, 49.91202695241232], [12.054290716272293, 49.91009781011575], [12.052125453747484, 49.91149989463589], [12.036557812672186, 49.91223197938881], [12.026345911306654, 49.93329794073053], [12.02962480279026, 49.93803722029748], [12.030357227707707, 49.944838772889476], [12.028028530930696, 49.947194719014185], [12.025079732367452, 49.9479002474201], [12.020167132769659, 49.954297671122454], [12.006421095417325, 49.958334513788955], [12.003599024319966, 49.96384096573812], [11.992584321574135, 49.96648093143058], [11.992704544473147, 49.96764568855635], [11.997730549318407, 49.969460941021445], [11.997790668015083, 49.97184867683199], [11.982254557994745, 49.98631940778768], [11.97997851162158, 49.98773420887344], [11.972206540791182, 49.987536743101806], [11.94464003396155, 49.99023090955101], [11.931883362038608, 49.998166791155484], [11.91917027685704, 49.99522060872885], [11.915263438849074, 49.9953607259186], [11.911375632340043, 49.99697323195124], [11.910207270407854, 49.999163588163185], [11.90810172296256, 49.99887344841397], [11.905775975522719, 50.00147073853928], [11.89260397995607, 50.00491203897122], [11.891179240489148, 50.0092421315487], [11.892476180979141, 50.014467905382475], [11.889579158319707, 50.01731105554899], [11.890064241604692, 50.01859430051798], [11.88240667056786, 50.02782903370063], [11.877892097907587, 50.02845364656035], [11.874396521656385, 50.03350228628081], [11.865985441389787, 50.03940611486011], [11.860679391882341, 50.045121313469934], [11.859243639117695, 50.050995469608445], [11.850811650750199, 50.05444498596454], [11.848356548781668, 50.06069771049959], [11.835725798282173, 50.06899568248396], [11.819611341846457, 50.06964387478956], [11.816336518285638, 50.071250971708395], [11.810155542445122, 50.072026013470534], [11.813367898303989, 50.07426368536215], [11.81842346880035, 50.084586086921036], [11.812271921542727, 50.093896375119634], [11.811833873187393, 50.10408040660534], [11.828904615511313, 50.11154619727126], [11.834146893061137, 50.11682290770558], [11.844622010505432, 50.12386024913192], [11.846161620261366, 50.127697215884616], [11.849610209157616, 50.12964703378363], [11.859793272570288, 50.12837678802574], [11.860284503661257, 50.140060073673055], [11.873999141737515, 50.14548534028431], [11.884657648886902, 50.14759277877529], [11.89753159395616, 50.14203238068128], [11.901113340438764, 50.14497678383483], [11.911904394065193, 50.14279045557157], [11.917371118462745, 50.14554550762448], [11.9171892573214, 50.142214033952555], [11.923597619145115, 50.14007058670772], [11.933648930908975, 50.143494294178254], [11.942352855164163, 50.140916877220874], [11.947961331452145, 50.14477515468363], [11.955769489111171, 50.14418067154975], [11.963991330586486, 50.14655059402867], [11.973900733719498, 50.146409300000364], [11.98828390736099, 50.15494422274972], [11.998190338382464, 50.15666646731921], [12.002225544584, 50.1636654760719], [12.005943998317766, 50.16462816670007], [12.009201803440583, 50.167618270387685], [12.013352907042144, 50.16787708315713], [12.012894262494987, 50.17713508438086], [12.015230805080401, 50.18057875135807], [12.02067139948447, 50.18239870598052], [12.025647487256881, 50.18176650083351], [12.037284267648676, 50.184295365760626], [12.04013204265989, 50.18700327080253], [12.045808306430608, 50.18863414488241], [12.046147724059727, 50.19375169921651], [12.048566125499558, 50.19638113173507], [12.051670891123338, 50.19760851180265], [12.06040560425058, 50.19782498170616], [12.067360402896602, 50.200952622915906], [12.074907772430949, 50.20209918437925], [12.082297786414555, 50.20676492109457], [12.074688846499642, 50.213845824260595], [12.069849013190108, 50.222938113952495], [12.05920036829532, 50.23222699492072], [12.05868639434024, 50.239357099502215], [12.059993861867191, 50.24193701819658], [12.064130973241637, 50.24159251000913], [12.066284933029193, 50.24489589418245], [12.070103478899162, 50.24587467631854], [12.077079417746546, 50.2459473412755], [12.082084112713252, 50.24421590950533], [12.080615523662809, 50.24903943895683], [12.081417685519131, 50.25354274841757], [12.06807985262958, 50.26540662911433], [12.075346301438078, 50.27126747139235], [12.075698170414373, 50.27633674059059], [12.092058652339803, 50.29171958697096], [12.09190141811373, 50.295722195617], [12.104260915480763, 50.30496659097676], [12.103685644789131, 50.30704282063923], [12.097617420284477, 50.3111526477171], [12.101643569455208, 50.3108855580203], [12.10548014453828, 50.31270577047861], [12.108296137027187, 50.315504295261526], [12.106516488805562, 50.3176221782297], [12.114568454658212, 50.32461626451952], [12.112369762179322, 50.327009931986325], [12.122353862807739, 50.33561533454083], [12.130639342714305, 50.3325182104074], [12.141313796265722, 50.33264049081139], [12.14781500831084, 50.329876963244786], [12.162406593949184, 50.33186665881026], [12.158844179440441, 50.33543609067017], [12.163329889218732, 50.33692666465199], [12.169727172432411, 50.33671969330304], [12.178588841708043, 50.3344858954521], [12.18302259423639, 50.33510367651278], [12.187772436914127, 50.332165289288426], [12.194055470986818, 50.33165598724766], [12.19893109785233, 50.327130277236655], [12.204047951905878, 50.32667188816776], [12.206254695404409, 50.32388558859178], [12.211804245677845, 50.32135390037379], [12.220886714093497, 50.32210458953756], [12.221977540104053, 50.309301810578944], [12.216005508215689, 50.308023031102564], [12.204106486283884, 50.30263710991744], [12.201550851909335, 50.29906806996401], [12.200884918338627, 50.29259196467482], [12.202979703091449, 50.28798457097247], [12.23442392521889, 50.281134178725665], [12.238570087632965, 50.283753304016486], [12.24279187817871, 50.2837195357394], [12.245768229093802, 50.28136236759628], [12.255000458587446, 50.28408435668765], [12.256723312565821, 50.28354115678746], [12.267040644545908, 50.275665027929], [12.268701961341069, 50.27175501251424], [12.269600833889385, 50.2645204316243], [12.265427928333233, 50.261913951853415], [12.264862194846478, 50.259793576267754], [12.265579609571947, 50.25767476587495], [12.268403584406549, 50.25613544606524], [12.268011007121896, 50.24866102950378], [12.273581958161799, 50.24339775443417], [12.271793185802869, 50.23946428459804], [12.26822112130124, 50.23654850920055], [12.269990430831067, 50.23553916713864], [12.272498289730434, 50.22790566539117], [12.286634943699323, 50.22731880134159], [12.292778374552901, 50.23046795702565], [12.301580444191478, 50.22836419890909], [12.307135917600636, 50.2292710965482], [12.316435005937915, 50.23461771909488], [12.317761756083229, 50.2391631102263], [12.320914570492619, 50.23899709559273], [12.325711744661023, 50.2415234390564], [12.32569657607486, 50.24443628704441], [12.328677446641667, 50.247664531566535], [12.326280835113229, 50.25402264701456], [12.329159310037504, 50.25663513583798], [12.329655472571918, 50.26045452779378], [12.336020962226359, 50.26622130287415], [12.338106825365237, 50.26665123249652], [12.332965540290239, 50.2725456256606], [12.329327810114975, 50.27390003345606], [12.332681604410983, 50.283113681422236], [12.323955352363875, 50.29145023524417], [12.327131061160578, 50.29411583772303], [12.32905388878929, 50.30125297476609], [12.339282812976913, 50.30081442662052], [12.342231541358077, 50.29805929613902], [12.363094935678893, 50.29631014282094], [12.371413543961005, 50.29764138389373], [12.374438382898274, 50.30214920215582], [12.371212044326855, 50.30509484401647], [12.36579603934358, 50.306294254456084], [12.361945022112016, 50.313185819620486], [12.36592536550186, 50.318811098732375], [12.369657797131184, 50.32096729902566], [12.369162470645213, 50.32859229625683], [12.36378349857054, 50.33498314514162], [12.366337628615694, 50.33652136094498], [12.364951149389297, 50.33979805187368], [12.366159238023938, 50.344356620699436], [12.367945961408614, 50.34468807967752], [12.360761332987371, 50.35224868532402], [12.357768739335969, 50.352280422389974], [12.35761520497821, 50.357085993970706], [12.352835313106276, 50.3700460585197], [12.35020451941493, 50.3735421033732], [12.346967529453394, 50.374940752105175], [12.34838984865156, 50.379107804153094], [12.352715340099664, 50.38226367977624], [12.352236116514115, 50.38399568763583], [12.354591355125438, 50.38683380335862], [12.352592662920433, 50.39034591084742], [12.365025831542203, 50.388801704475284], [12.383370926088322, 50.384647749813865], [12.392275830569536, 50.37587088229017], [12.397083840198395, 50.37841666083716], [12.410691785037814, 50.38159659501657], [12.412441444424905, 50.3847503210974], [12.410400762029196, 50.389405313297566], [12.412392513517787, 50.392877312708606], [12.418113284326747, 50.395760559771745], [12.42726267990093, 50.39666218102503], [12.430057302867285, 50.40201006896164], [12.43494579750004, 50.40343503887311], [12.437463235346511, 50.40110546386586], [12.443495528012265, 50.402941514228864], [12.445025550841505, 50.401321113062075], [12.448576793465408, 50.40221131136291], [12.450163315254718, 50.399978819428654], [12.459907301695054, 50.40109137641851], [12.460860835210228, 50.397919820128486], [12.463845863079436, 50.39722290345829], [12.46648160122411, 50.39431048622142], [12.47823051980627, 50.391971817576085], [12.469331985309294, 50.403475896241204], [12.468929341848964, 50.40756791288968], [12.47751085467089, 50.40902074915975], [12.480775142727671, 50.40838697306474], [12.485111832137548, 50.40533036083172], [12.495991404322245, 50.40726663648312], [12.496587291483879, 50.41447394127265], [12.501533695976784, 50.41457406389865], [12.504028140258622, 50.416293791718935], [12.503040167795888, 50.42214324682717], [12.500780366101795, 50.423234974925585], [12.50215150896692, 50.42509398673097], [12.501254854977516, 50.428797184784024], [12.503438302502655, 50.4296552492409], [12.503395712522826, 50.432932227015925], [12.510411063215042, 50.438075282140304]], [[13.283697550973086, 50.13969680873861], [13.28396508010625, 50.13635950460629], [13.280195430757509, 50.13482110147878], [13.279021485503664, 50.13276420350232], [13.268900940731157, 50.13302545091616], [13.270039529356207, 50.13045855018064], [13.261226764624292, 50.12707782804274], [13.266245185133476, 50.12169432909486], [13.267965246460854, 50.12140986617976], [13.280394632362775, 50.12595923152343], [13.289549603422474, 50.12532579301897], [13.291308165203757, 50.126463063723556], [13.293230074715577, 50.12509200262154], [13.298602331694996, 50.125380663549215], [13.306633918129698, 50.12953094960436], [13.318311592860436, 50.13031046074072], [13.324885678222827, 50.132033287542924], [13.322697254253848, 50.1363852961527], [13.300204854445491, 50.13813337428512], [13.292967953359728, 50.13995008742955], [13.283697550973086, 50.13969680873861]]]]}}]}